NOAA 15                 
1 25338U 98030A   24255.50194861  .00000831  00000+0  36118-3 0  9996
2 25338  98.5650 280.8146 0011399  74.9512 285.2929 14.26702587369744
DMSP 5D-3 F16 (USA 172) 
1 28054U 03048A   24255.55398296  .00000790  00000+0  43891-3 0  9992
2 28054  99.0238 262.8445 0007602 160.7762 309.5323 14.14110065 78482
NOAA 18                 
1 28654U 05018A   24255.50999652  .00000825  00000+0  46299-3 0  9999
2 28654  98.8691 331.7424 0014462 174.7624 185.3702 14.13322531995453
METEOSAT-9 (MSG-2)      
1 28912U 05049B   24254.06021521  .00000132  00000+0  00000+0 0  9998
2 28912   7.8769  60.1242 0000745 222.2493 134.6931  1.00278094   532
EWS-G1 (GOES 13)        
1 29155U 06018A   24254.53243851  .00000005  00000+0  00000+0 0  9998
2 29155   2.8424  84.2440 0067888 256.3063  50.8141  0.98921711 36879
DMSP 5D-3 F17 (USA 191) 
1 29522U 06050A   24255.55408005  .00000875  00000+0  47821-3 0  9990
2 29522  98.7460 264.3561 0011293  93.3852 266.8613 14.14565341921401
FENGYUN 3A              
1 32958U 08026A   24255.47214010  .00000872  00000+0  43680-3 0  9990
2 32958  98.6099 200.1231 0008624 176.2073 183.9170 14.19186294844195
NOAA 19                 
1 33591U 09005A   24255.47376670  .00000687  00000+0  39157-3 0  9991
2 33591  99.0390 312.1556 0014478  52.2208 308.0273 14.13112995803818
GOES 14                 
1 35491U 09033A   24254.98951573 -.00000062  00000+0  00000+0 0  9998
2 35491   0.0134 168.9360 0004158 348.0418  81.3768  1.00271009 55699
DMSP 5D-3 F18 (USA 210) 
1 35951U 09057A   24255.50976150  .00001135  00000+0  61714-3 0  9996
2 35951  98.8234 229.7393 0009912 283.8400  76.1670 14.14263222768566
EWS-G2 (GOES 15)        
1 36411U 10008A   24255.45242803  .00000042  00000+0  00000+0 0  9994
2 36411   0.3852 274.7669 0005561 298.8960   1.5740  1.00269779 53179
COMS 1                  
1 36744U 10032A   24254.73767997 -.00000339  00000+0  00000+0 0  9996
2 36744   3.1647  83.4412 0000888  90.5233 210.0034  1.00270969 44625
FENGYUN 3B              
1 37214U 10059A   24255.58447414  .00000458  00000+0  26174-3 0  9996
2 37214  99.0508 284.8671 0021745 206.1996 267.0764 14.14562637716463
SUOMI NPP               
1 37849U 11061A   24255.52733329  .00000517  00000+0  26593-3 0  9992
2 37849  98.7250 192.2200 0001669  55.6614 304.4720 14.19573161667118
FENGYUN 2F              
1 38049U 12002A   24255.16449269  .00000092  00000+0  00000+0 0  9997
2 38049   5.9465  73.1592 0002060 118.3370 271.0216  0.99135651 46427
METEOSAT-10 (MSG-3)     
1 38552U 12035B   24255.15415392  .00000000  00000+0  00000+0 0  9990
2 38552   3.1557  61.4423 0000330 254.4110  90.3851  1.00272781 44764
METOP-B                 
1 38771U 12049A   24255.47083179  .00000647  00000+0  31525-3 0  9994
2 38771  98.6199 310.7227 0001129 113.4662 246.6634 14.21504714621805
INSAT-3D                
1 39216U 13038B   24254.82218420 -.00000333  00000+0  00000+0 0  9998
2 39216   0.2497  92.8252 0001612  86.3472 236.6673  1.00276236 40614
FENGYUN 3C              
1 39260U 13052A   24255.57119572  .00000566  00000+0  30586-3 0  9997
2 39260  98.4347 250.6212 0012319  79.0141 281.2419 14.16277854567553
METEOR-M 2              
1 40069U 14037A   24255.49707688  .00000692  00000+0  33780-3 0  9991
2 40069  98.4440 245.9072 0006975 104.5235 255.6717 14.21054317527887
HIMAWARI-8              
1 40267U 14060A   24254.96744812 -.00000270  00000+0  00000+0 0  9996
2 40267   0.0111 213.3849 0000922 296.5316 329.5152  1.00272575 36408
FENGYUN 2G              
1 40367U 14090A   24255.56157050 -.00000299  00000+0  00000+0 0  9990
2 40367   4.0054  80.5034 0002326 159.1018  53.2187  1.00276582 35581
METEOSAT-11 (MSG-4)     
1 40732U 15034A   24255.22748094  .00000067  00000+0  00000+0 0  9994
2 40732   1.5904  70.5761 0001265 177.3656 193.9109  1.00271649 33550
ELEKTRO-L 2             
1 41105U 15074A   24255.36574417 -.00000111  00000+0  00000+0 0  9995
2 41105   5.0555  78.4064 0002297 153.6134 236.0440  1.00273094 32061
INSAT-3DR               
1 41752U 16054A   24254.45357226 -.00000071  00000+0  00000+0 0  9993
2 41752   0.0382 105.9470 0011711 156.5737 324.7703  1.00271890 29358
HIMAWARI-9              
1 41836U 16064A   24255.48262365 -.00000271  00000+0  00000+0 0  9992
2 41836   0.0369 210.5022 0000912 350.5583 104.4361  1.00270260 28844
GOES 16                 
1 41866U 16071A   24255.42523447 -.00000244  00000+0  00000+0 0  9998
2 41866   0.0808 284.5043 0000198 271.4380 232.8852  1.00271979 28648
FENGYUN 4A              
1 41882U 16077A   24254.88159288 -.00000195  00000+0  00000+0 0  9994
2 41882   0.6684  85.8751 0008257 344.0997 324.5128  1.00275228 28463
CYGFM05                 
1 41884U 16078A   24254.92751145  .00022281  00000+0  75470-3 0  9998
2 41884  34.9634 117.3606 0012903 265.3040  94.6202 15.29586093429203
CYGFM04                 
1 41885U 16078B   24254.86320924  .00021768  00000+0  71636-3 0  9998
2 41885  34.9382 100.9455 0010829 287.5842  72.3691 15.30542642429293
CYGFM02                 
1 41886U 16078C   24254.86924698  .00022544  00000+0  73311-3 0  9992
2 41886  34.9469 102.9583 0013223 276.1010  83.8199 15.30891067429384
CYGFM01                 
1 41887U 16078D   24254.92137991  .00021515  00000+0  73411-3 0  9990
2 41887  34.9475 121.3603 0012805 255.4157 104.5139 15.29355037429135
CYGFM08                 
1 41888U 16078E   24254.88581051  .00022210  00000+0  73431-3 0  9991
2 41888  34.9493 108.9594 0013965 276.3933  83.5193 15.30351948429313
CYGFM07                 
1 41890U 16078G   24254.90965495  .00021886  00000+0  71655-3 0  9999
2 41890  34.9494 100.0013 0011219 290.4092  69.5419 15.30703471429316
CYGFM03                 
1 41891U 16078H   24254.88479019  .00023101  00000+0  75877-3 0  9991
2 41891  34.9462 101.4222 0010803 275.4651  84.4832 15.30595529429296
FENGYUN 3D              
1 43010U 17072A   24255.51870681  .00000616  00000+0  31417-3 0  9990
2 43010  98.9190 210.7130 0002635  87.4243 272.7234 14.19421998353662
NOAA 20 (JPSS-1)        
1 43013U 17073A   24255.54397429  .00000475  00000+0  24568-3 0  9993
2 43013  98.7093 192.0276 0001400  29.2846 330.8409 14.19584003353151
GOES 17                 
1 43226U 18022A   24253.19771693 -.00000083  00000+0  00000+0 0  9999
2 43226   0.0332   4.7296 0002042 195.3071 115.1798  1.00272127 23941
FENGYUN 2H              
1 43491U 18050A   24255.45599012 -.00000127  00000+0  00000+0 0  9997
2 43491   1.3609  86.5147 0001422  95.4965  52.5960  1.00271339 23053
METOP-C                 
1 43689U 18087A   24255.43804187  .00000640  00000+0  31287-3 0  9990
2 43689  98.7155 313.6733 0001780 160.4464 199.6782 14.21472636303378
GEO-KOMPSAT-2A          
1 43823U 18100A   24254.47713322 -.00000338  00000+0  00000+0 0  9999
2 43823   0.0359  17.0366 0002208 104.0919 168.9081  1.00272624 21165
METEOR-M2 2             
1 44387U 19038A   24255.51031347  .00000885  00000+0  40549-3 0  9994
2 44387  98.8367 225.1127 0002445  80.1029 280.0425 14.23968114269674
ARKTIKA-M 1             
1 47719U 21016A   24253.99415171  .00000069  00000+0  00000+0 0  9994
2 47719  63.1279 141.9781 6970435 268.5590  17.7464  2.00620856    17
FENGYUN 3E              
1 49008U 21062A   24255.53669314  .00000224  00000+0  12664-3 0  9996
2 49008  98.7372 255.6736 0002440 121.0323 239.1094 14.19784655165241
GOES 18                 
1 51850U 22021A   24255.58380142  .00000101  00000+0  00000+0 0  9995
2 51850   0.0015 303.2058 0000077 223.3139 257.7478  1.00271349  9359
NOAA 21 (JPSS-2)        
1 54234U 22150A   24255.50957664  .00000583  00000+0  29719-3 0  9994
2 54234  98.7546 192.4025 0000400  97.0473 263.0748 14.19575549 95224
METEOSAT-12 (MTG-I1)    
1 54743U 22170C   24255.16115941 -.00000001  00000+0  00000+0 0  9991
2 54743   0.6043  46.4432 0002126  91.4675 270.4953  1.00273794  6519
TIANMU-1 03             
1 55973U 23039A   24255.55557001  .00020000  00000+0  80323-3 0  9992
2 55973  97.4778  45.8118 0004259 229.6535 130.4331 15.24981894 82008
TIANMU-1 04             
1 55974U 23039B   24255.46793636  .00019633  00000+0  78579-3 0  9999
2 55974  97.4698  45.2091 0005366 227.0563 133.0225 15.25095858 81981
TIANMU-1 05             
1 55975U 23039C   24255.52266065  .00020014  00000+0  80392-3 0  9999
2 55975  97.4747  45.6338 0003808 251.2870 108.7954 15.24978626 81984
TIANMU-1 06             
1 55976U 23039D   24255.56091993  .00020106  00000+0  80211-3 0  9992
2 55976  97.4761  45.8303 0004310 249.0981 110.9795 15.25205632 81992
METEOR-M2 3             
1 57166U 23091A   24255.47592701  .00000185  00000+0  99879-4 0  9992
2 57166  98.7048 309.3431 0003126 228.7820 131.3090 14.23923875 62905
TIANMU-1 07             
1 57399U 23101A   24255.45599559  .00013148  00000+0  63368-3 0  9994
2 57399  97.3547 310.2354 0003748 233.9450 126.1438 15.18840440 63511
TIANMU-1 08             
1 57400U 23101B   24255.49073833  .00012803  00000+0  61698-3 0  9994
2 57400  97.3538 310.1310 0005761 244.9025 115.1612 15.18844668 63510
TIANMU-1 09             
1 57401U 23101C   24255.47350271  .00013480  00000+0  64864-3 0  9997
2 57401  97.3492 309.9065 0006205 239.7663 120.2957 15.18879789 63518
TIANMU-1 10             
1 57402U 23101D   24255.50661069  .00014343  00000+0  68997-3 0  9992
2 57402  97.3572 310.3023 0008378 240.9141 119.1255 15.18862110 63514
FENGYUN 3F              
1 57490U 23111A   24255.48624920  .00000457  00000+0  23597-3 0  9990
2 57490  98.7626 323.7961 0001191 139.1499 220.9766 14.19878025 57519
ARKTIKA-M 2             
1 58584U 23198A   24254.22540199  .00000105  00000+0  00000+0 0  9996
2 58584  63.2493 225.6636 6949684 269.7197  17.4503  2.00596173  5385
TIANMU-1 11             
1 58645U 23205A   24255.53434916  .00011810  00000+0  60588-3 0  9993
2 58645  97.4009 278.4567 0013200 103.9177 256.3525 15.16612500 39593
TIANMU-1 12             
1 58646U 23205B   24255.54797657  .00012656  00000+0  65048-3 0  9994
2 58646  97.3992 278.3892 0011106  99.2433 261.0056 15.16551842 39581
